NORAD_CAT_ID,OBJECT_NAME,OBJECT_TYPE,EPOCH,MEAN_MOTION,ECCENTRICITY,INCLINATION,RA_OF_ASC_NODE,ARG_OF_PERICENTER,MEAN_ANOMALY,BSTAR,MEAN_MOTION_DOT,MEAN_MOTION_DDOT,TLE_LINE0,TLE_LINE1,TLE_LINE2,SEMIMAJOR_AXIS,PERIOD,APOGEE,PERIGEE,DECAYED
53790.0,STARLINK-4734,PAYLOAD,2022-09-19 18:00:00,15.73042724,0.0001122,53.2156,224.0781,97.1437,328.7354,0.00079127,0.00111156,0.0,0 STARLINK-4734,1 53790U 22111T   22262.75001157  .00111156  00000-0  79127-3 0  9995,2 53790  53.2156 224.0781 0001122  97.1437 328.7354 15.73042724  1300,6728.344,91.542,350.964,349.454,0.0
53790.0,STARLINK-4734,PAYLOAD,2022-09-19 22:00:00,15.73106837,0.0001159,53.2158,223.2537,99.2323,191.0135,-9.7215e-05,-0.00014185,0.0,0 STARLINK-4734,1 53790U 22111T   22262.91667824 -.00014185  00000-0 -97215-4 0  9997,2 53790  53.2158 223.2537 0001159  99.2323 191.0135 15.73106837  1303,6728.161,91.539,350.806,349.246,0.0
53790.0,STARLINK-4734,PAYLOAD,2022-09-20 06:00:00,15.73052811,0.0001155,53.2158,221.6065,86.1435,292.9203,0.0012661,0.00179785,0.0,0 STARLINK-4734,1 53790U 22111T   22263.25001157  .00179785  00000-0  12661-2 0  9992,2 53790  53.2158 221.6065 0001155  86.1435 292.9203 15.73052811  1372,6728.315,91.542,350.957,349.403,0.0
53790.0,STARLINK-4734,PAYLOAD,2022-09-20 14:00:01,15.73186702,0.0001088999999999,53.216,219.9558,92.5652,15.3157,7.5991e-05,0.00010052,0.0,0 STARLINK-4734,1 53790U 22111T   22263.58334491  .00010052  00000-0  75991-4 0  9996,2 53790  53.2160 219.9558 0001089  92.5652  15.3157 15.73186702  1439,6727.933000000001,91.534,350.531,349.065,0.0
53790.0,STARLINK-4734,PAYLOAD,2022-09-20 22:00:01,15.73200614,0.0001066999999999,53.2163,218.3056,100.5333,96.329,-9.686e-05,-0.0001419,0.0,0 STARLINK-4734,1 53790U 22111T   22263.91668981 -.00014190  00000-0 -96860-4 0  9994,2 53790  53.2163 218.3056 0001067 100.5333  96.3290 15.73200614  1302,6727.893,91.533,350.476,349.041,0.0
53790.0,STARLINK-4734,PAYLOAD,2022-09-21 22:00:00,15.73240552,0.0001135,53.2161,213.3573,103.0781,0.5539999999999999,-0.00010113,-0.00014812,0.0,0 STARLINK-4734,1 53790U 22111T   22264.91667824 -.00014812  00000-0 -10113-3 0  9997,2 53790  53.2161 213.3573 0001135 103.0781   0.5540 15.73240552  1647,6727.78,91.531,350.408,348.881,0.0
53790.0,STARLINK-4734,PAYLOAD,2022-09-22 14:00:01,15.73204667,0.0001087,53.2165,210.0584,98.7291,182.802,-0.00039196,-0.00055278,0.0,0 STARLINK-4734,1 53790U 22111T   22265.58334491 -.00055278  00000-0 -39196-3 0  9995,2 53790  53.2165 210.0584 0001087  98.7291 182.8020 15.73204667  1744,6727.882,91.533,350.478,349.016,0.0
53790.0,STARLINK-4734,PAYLOAD,2022-09-22 22:00:00,15.73192858,0.0001228,53.2169,208.4087,101.5996,268.8386,0.00023064,0.00031861,0.0,0 STARLINK-4734,1 53790U 22111T   22265.91667824  .00031861  00000-0  23064-3 0  9998,2 53790  53.2169 208.4087 0001228 101.5996 268.8386 15.73192858  1309,6727.916,91.534,350.607,348.954,0.0
53790.0,STARLINK-4734,PAYLOAD,2022-09-23 14:00:01,15.7305718,6.12e-05,53.2168,205.1101,70.1026,118.0862,0.00034478,0.00047747,0.0,0 STARLINK-4734,1 53790U 22111T   22266.58334491  .00047747  00000-0  34478-3 0  9994,2 53790  53.2168 205.1101 0000612  70.1026 118.0862 15.73057180  1909,6728.302,91.541,350.579,349.756,0.0
53790.0,STARLINK-4734,PAYLOAD,2022-09-23 20:00:01,15.730956699999998,6.709999999999999e-05,53.2169,203.8728,85.9282,78.8986,0.00030942,0.00042833,0.0,0 STARLINK-4734,1 53790U 22111T   22266.83335648  .00042833  00000-0  30942-3 0  9990,2 53790  53.2169 203.8728 0000671  85.9282  78.8986 15.73095670  1303,6728.193,91.539,350.509,349.606,0.0
53790.0,STARLINK-4734,PAYLOAD,2022-09-24 14:00:01,15.73104466,0.0001058,53.2173,200.1624,84.4248,10.2585,0.0019483,0.0028101,0.0,0 STARLINK-4734,1 53790U 22111T   22267.58335648  .00281010  00000-0  19483-2 0  9991,2 53790  53.2173 200.1624 0001058  84.4248  10.2585 15.73104466  2062,6728.168000000002,91.539,350.744,349.321,0.0
53790.0,STARLINK-4734,PAYLOAD,2022-09-24 22:00:00,15.73325343,0.0001346,53.2176,198.5132,86.8168,96.721,0.00030851,0.00043133,0.0,0 STARLINK-4734,1 53790U 22111T   22267.91667824  .00043133  00000-0  30851-3 0  9997,2 53790  53.2176 198.5132 0001346  86.8168  96.7210 15.73325343  1305,6727.538000000001,91.526,350.30800000000005,348.497,0.0
53790.0,STARLINK-4734,PAYLOAD,2022-09-25 14:00:01,15.73442964,0.0001030999999999,53.2177,195.2179,75.67399999999998,286.0408,-0.00171,-0.00236427,0.0,0 STARLINK-4734,1 53790U 22111T   22268.58334491 -.00236427  00000-0 -17100-2 0  9995,2 53790  53.2177 195.2179 0001031  75.6740 286.0408 15.73442964  1306,6727.203,91.519,349.761,348.374,0.0
53790.0,STARLINK-4734,PAYLOAD,2022-09-25 22:00:01,15.73204945,0.0001328,53.2175,193.5705,78.92399999999998,11.9919,-8.4347e-06,-1.804e-05,0.0,0 STARLINK-4734,1 53790U 22111T   22268.91668981 -.00001804  00000-0 -84347-5 0  9995,2 53790  53.2175 193.5705 0001328  78.9240  11.9919 15.73204945  1307,6727.880999999999,91.533,350.64,348.853,0.0
53790.0,STARLINK-4734,PAYLOAD,2022-09-26 10:00:00,15.73280946,7.87e-05,53.2172,191.0905,76.1208,328.16,-0.00093217,-0.00129884,0.0,0 STARLINK-4734,1 53790U 22111T   22269.41667824 -.00129884  00000-0 -93217-3 0  9999,2 53790  53.2172 191.0905 0000787  76.1208 328.1600 15.73280946  2341,6727.6640000000025,91.528,350.059,349.0,0.0
53790.0,STARLINK-4734,PAYLOAD,2022-09-26 14:00:01,15.732025699999998,7.77e-05,53.2176,190.2647,87.7562,181.0309,-0.00021479,-0.00030655,0.0,0 STARLINK-4734,1 53790U 22111T   22269.58334491 -.00030655  00000-0 -21479-3 0  9996,2 53790  53.2176 190.2647 0000777  87.7562 181.0309 15.73202570  1303,6727.888000000001,91.533,350.276,349.23,0.0
53790.0,STARLINK-4734,PAYLOAD,2022-09-26 22:00:00,15.73215492,7.950000000000001e-05,53.2178,188.6158,84.5558,273.1345,-0.00022794,-0.00032505,0.0,0 STARLINK-4734,1 53790U 22111T   22269.91667824 -.00032505  00000-0 -22794-3 0  9999,2 53790  53.2178 188.6158 0000795  84.5558 273.1345 15.73215492  2427,6727.851,91.532,350.251,349.181,0.0
53790.0,STARLINK-4734,PAYLOAD,2022-09-27 14:00:01,15.73186232,8.950000000000001e-05,53.2173,185.3164,90.0765,85.477,0.00070484,0.00099418,0.0,0 STARLINK-4734,1 53790U 22111T   22270.58334491  .00099418  00000-0  70484-3 0  9998,2 53790  53.2173 185.3164 0000895  90.0765  85.4770 15.73186232  2533,6727.934,91.534,350.402,349.19699999999995,0.0
53790.0,STARLINK-4734,PAYLOAD,2022-09-27 22:00:01,15.73303309,0.0001072999999999,53.2172,183.6679,88.7103,175.8753,-0.00046381,-0.00065493,0.0,0 STARLINK-4734,1 53790U 22111T   22270.91668981 -.00065493  00000-0 -46381-3 0  9996,2 53790  53.2172 183.6679 0001073  88.7103 175.8753 15.73303309  1308,6727.601,91.527,350.18800000000016,348.744,0.0
53790.0,STARLINK-4734,PAYLOAD,2022-09-28 06:00:00,15.73274559,0.0001165,53.2167,182.0195,78.4861,275.0525,5.7484e-05,7.48e-05,0.0,0 STARLINK-4734,1 53790U 22111T   22271.25001157  .00007480  00000-0  57484-4 0  9997,2 53790  53.2167 182.0195 0001165  78.4861 275.0525 15.73274559  2638,6727.683000000001,91.529,350.331,348.764,0.0
53790.0,STARLINK-4734,PAYLOAD,2022-09-28 14:00:01,15.73239414,0.0001125,53.2169,180.3678,93.8721,348.6831,-0.00066288,-0.00092785,0.0,0 STARLINK-4734,1 53790U 22111T   22271.58334491 -.00092785  00000-0 -66288-3 0  9998,2 53790  53.2169 180.3678 0001125  93.8721 348.6831 15.73239414  2693,6727.783,91.531,350.405,348.891,0.0
53790.0,STARLINK-4734,PAYLOAD,2022-09-28 22:00:00,15.73344382,0.0001204,53.2171,178.71900000000005,117.6781,53.9141,-0.0012514,-0.00173735,0.0,0 STARLINK-4734,1 53790U 22111T   22271.91667824 -.00173735  00000-0 -12514-2 0  9991,2 53790  53.2171 178.7190 0001204 117.6781  53.9141 15.73344382  1303,6727.484,91.525,350.159,348.539,0.0
53790.0,STARLINK-4734,PAYLOAD,2022-09-29 06:00:00,15.7314671,9.4e-05,53.2166,177.0703,111.3404,149.2885,0.0010068999999999,0.0014279,0.0,0 STARLINK-4734,1 53790U 22111T   22272.25001157  .00142790  00000-0  10069-2 0  9998,2 53790  53.2166 177.0703 0000940 111.3404 149.2885 15.73146710  2791,6728.047,91.536,350.545,349.28,0.0
53790.0,STARLINK-4734,PAYLOAD,2022-09-29 14:00:01,15.73249299,0.0001107999999999,53.2165,175.4189,122.7317,226.8182,0.00080964,0.00114814,0.0,0 STARLINK-4734,1 53790U 22111T   22272.58334491  .00114814  00000-0  80964-3 0  9992,2 53790  53.2165 175.4189 0001108 122.7317 226.8182 15.73249299  1300,6727.755,91.53,350.365,348.874,0.0
53790.0,STARLINK-4734,PAYLOAD,2022-09-29 20:00:01,15.73377414,0.0001157,53.2166,174.1824,123.8739,202.4965,-0.001066,-0.00148733,0.0,0 STARLINK-4734,1 53790U 22111T   22272.83335648 -.00148733  00000-0 -10660-2 0  9999,2 53790  53.2166 174.1824 0001157 123.8739 202.4965 15.73377414  2881,6727.389,91.523,350.033,348.476,0.0
53790.0,STARLINK-4734,PAYLOAD,2022-09-29 22:00:00,15.73395616,0.0001113,53.2163,173.7707,118.1168,320.4596,-0.0017506,-0.00241397,0.0,0 STARLINK-4734,1 53790U 22111T   22272.91667824 -.00241397  00000-0 -17506-2 0  9998,2 53790  53.2163 173.7707 0001113 118.1168 320.4596 15.73395616  1309,6727.3380000000025,91.522,349.951,348.454,0.0
53790.0,STARLINK-4734,PAYLOAD,2022-09-30 06:00:02,15.73216169,9.82e-05,53.2158,172.1215,114.3956,53.3116,-0.0012370999999999,-0.00170869,0.0,0 STARLINK-4734,1 53790U 22111T   22273.25002315 -.00170869  00000-0 -12371-2 0  9994,2 53790  53.2158 172.1215 0000982 114.3956  53.3116 15.73216169  2953,6727.849,91.532,350.375,349.05300000000005,0.0
53790.0,STARLINK-4734,PAYLOAD,2022-09-30 14:00:01,15.73037406,0.000129,53.2161,170.4701,123.1288,133.4026,0.00052875,0.00073723,0.0,0 STARLINK-4734,1 53790U 22111T   22273.58334491  .00073723  00000-0  52875-3 0  9996,2 53790  53.2161 170.4701 0001290 123.1288 133.4026 15.73037406  1300,6728.359,91.543,351.092,349.356,0.0
53790.0,STARLINK-4734,PAYLOAD,2022-09-30 22:00:00,15.73107314,0.000133,53.2162,168.8223,116.7623,228.5336,0.00034474,0.00047846,0.0,0 STARLINK-4734,1 53790U 22111T   22273.91667824  .00047846  00000-0  34474-3 0  9994,2 53790  53.2162 168.8223 0001330 116.7623 228.5336 15.73107314  1303,6728.159000000002,91.539,350.9190000000001,349.13,0.0
